start=new Date('2022-05-17T00:00:00.000Z').valueOf();
sats=[{"INCLINATION":"53.0561","GP_ID":"203705566","LAUNCH_DATE":"2019-11-11","NORAD_CAT_ID":"44757","CENTER_NAME":"EARTH","MEAN_ANOMALY":"294.8254","DECAY_DATE":null,"REV_AT_EPOCH":"13870","PERIAPSIS":"546.180","COUNTRY_CODE":"US","OBJECT_TYPE":"PAYLOAD","ELEMENT_SET_NO":"999","BSTAR":"0.00001791500000","CLASSIFICATION_TYPE":"U","REF_FRAME":"TEME","OBJECT_ID":"2019-074AW","RCS_SIZE":"LARGE","OBJECT_NAME":"STARLINK-1052","RA_OF_ASC_NODE":"339.3431","TLE_LINE2":"2 44757  53.0561 339.3431 0001512  65.2892 294.8254 15.06395480138700","SITE":"AFETR","TLE_LINE1":"1 44757U 19074AW  22136.84561159 -.00000015  00000-0  17915-4 0  9995","APOAPSIS":"548.275","FILE":"3448782","EPHEMERIS_TYPE":"0","MEAN_ELEMENT_THEORY":"SGP4","MEAN_MOTION_DOT":"-0.00000015","TIME_SYSTEM":"UTC","EPOCH":"2022-05-16T20:17:40.841376","MEAN_MOTION_DDOT":"0.0000000000000","ARG_OF_PERICENTER":"65.2892","MEAN_MOTION":"15.06395480","PERIOD":"95.592","ECCENTRICITY":"0.00015120","SEMIMAJOR_AXIS":"6925.362"},{"OBJECT_NAME":"STARLINK-1053","REF_FRAME":"TEME","OBJECT_ID":"2019-074AX","RCS_SIZE":"LARGE","RA_OF_ASC_NODE":"359.3128","SITE":"AFETR","TLE_LINE2":"2 44758  53.0539 359.3128 0001332  72.5933 287.5202 15.06402004138431","PERIAPSIS":"546.285","COUNTRY_CODE":"US","OBJECT_TYPE":"PAYLOAD","REV_AT_EPOCH":"13843","CLASSIFICATION_TYPE":"U","ELEMENT_SET_NO":"999","BSTAR":"0.00016069000000","MEAN_ANOMALY":"287.5202","DECAY_DATE":null,"NORAD_CAT_ID":"44758","GP_ID":"203705619","INCLINATION":"53.0539","LAUNCH_DATE":"2019-11-11","CENTER_NAME":"EARTH","PERIOD":"95.592","ECCENTRICITY":"0.00013320","SEMIMAJOR_AXIS":"6925.342","MEAN_MOTION":"15.06402004","TIME_SYSTEM":"UTC","EPOCH":"2022-05-16T20:29:35.425536","MEAN_MOTION_DOT":"0.00002113","MEAN_MOTION_DDOT":"0.0000000000000","ARG_OF_PERICENTER":"72.5933","TLE_LINE1":"1 44758U 19074AX  22136.85388224  .00002113  00000-0  16069-3 0  9995","APOAPSIS":"548.130","MEAN_ELEMENT_THEORY":"SGP4","FILE":"3448785","EPHEMERIS_TYPE":"0"},{"MEAN_MOTION":"15.06396180","ECCENTRICITY":"0.00014160","PERIOD":"95.592","SEMIMAJOR_AXIS":"6925.360","MEAN_MOTION_DDOT":"0.0000000000000","ARG_OF_PERICENTER":"77.7269","MEAN_MOTION_DOT":"0.00001690","EPOCH":"2022-05-16T07:30:42.933888","TIME_SYSTEM":"UTC","EPHEMERIS_TYPE":"0","FILE":"3448591","MEAN_ELEMENT_THEORY":"SGP4","TLE_LINE1":"1 44759U 19074AY  22136.31299692  .00001690  00000-0  13236-3 0  9999","APOAPSIS":"548.206","RA_OF_ASC_NODE":"1.7295","SITE":"AFETR","TLE_LINE2":"2 44759  53.0548   1.7295 0001416  77.7269 282.3878 15.06396180135826","REF_FRAME":"TEME","OBJECT_ID":"2019-074AY","RCS_SIZE":"LARGE","OBJECT_NAME":"STARLINK-1054","BSTAR":"0.00013236000000","ELEMENT_SET_NO":"999","CLASSIFICATION_TYPE":"U","REV_AT_EPOCH":"13582","OBJECT_TYPE":"PAYLOAD","COUNTRY_CODE":"US","PERIAPSIS":"546.245","MEAN_ANOMALY":"282.3878","DECAY_DATE":null,"CENTER_NAME":"EARTH","GP_ID":"203694747","INCLINATION":"53.0548","LAUNCH_DATE":"2019-11-11","NORAD_CAT_ID":"44759"},{"TIME_SYSTEM":"UTC","EPOCH":"2022-05-16T08:45:01.198080","MEAN_MOTION_DOT":"0.00002010","ARG_OF_PERICENTER":"54.1226","MEAN_MOTION_DDOT":"0.0000000000000","SEMIMAJOR_AXIS":"6925.357","PERIOD":"95.592","ECCENTRICITY":"0.00018730","MEAN_MOTION":"15.06397084","APOAPSIS":"548.520","TLE_LINE1":"1 44760U 19074AZ  22136.36459720  .00002010  00000-0  15380-3 0  9995","EPHEMERIS_TYPE":"0","FILE":"3448591","MEAN_ELEMENT_THEORY":"SGP4","COUNTRY_CODE":"US","PERIAPSIS":"545.925","OBJECT_TYPE":"PAYLOAD","REV_AT_EPOCH":"13819","CLASSIFICATION_TYPE":"U","BSTAR":"0.00015380000000","ELEMENT_SET_NO":"999","OBJECT_NAME":"STARLINK-1055","RCS_SIZE":"LARGE","OBJECT_ID":"2019-074AZ","REF_FRAME":"TEME","SITE":"AFETR","TLE_LINE2":"2 44760  53.0570   1.5003 0001873  54.1226 305.9936 15.06397084138191","RA_OF_ASC_NODE":"1.5003","NORAD_CAT_ID":"44760","GP_ID":"203694997","INCLINATION":"53.0570","LAUNCH_DATE":"2019-11-11","CENTER_NAME":"EARTH","DECAY_DATE":null,"MEAN_ANOMALY":"305.9936"},{"TLE_LINE1":"1 44761U 19074BA  22136.77374095 -.00000870  00000-0 -39499-4 0  9994","APOAPSIS":"548.262","MEAN_ELEMENT_THEORY":"SGP4","FILE":"3448782","EPHEMERIS_TYPE":"0","MEAN_MOTION":"15.06393708","ECCENTRICITY":"0.00014860","PERIOD":"95.593","SEMIMAJOR_AXIS":"6925.368","MEAN_MOTION_DOT":"-0.00000870","EPOCH":"2022-05-16T18:34:11.218080","TIME_SYSTEM":"UTC","MEAN_MOTION_DDOT":"0.0000000000000","ARG_OF_PERICENTER":"70.8828","MEAN_ANOMALY":"289.2322","DECAY_DATE":null,"GP_ID":"203705565","INCLINATION":"53.0569","LAUNCH_DATE":"2019-11-11","NORAD_CAT_ID":"44761","CENTER_NAME":"EARTH","OBJECT_ID":"2019-074BA","REF_FRAME":"TEME","RCS_SIZE":"LARGE","OBJECT_NAME":"STARLINK-1056","RA_OF_ASC_NODE":"359.6628","SITE":"AFETR","TLE_LINE2":"2 44761  53.0569 359.6628 0001486  70.8828 289.2322 15.06393708138421","REV_AT_EPOCH":"13842","PERIAPSIS":"546.204","COUNTRY_CODE":"US","OBJECT_TYPE":"PAYLOAD","ELEMENT_SET_NO":"999","BSTAR":"-0.00003949900000","CLASSIFICATION_TYPE":"U"},{"MEAN_MOTION_DOT":"-0.00000174","EPOCH":"2022-05-16T01:05:54.027744","TIME_SYSTEM":"UTC","MEAN_MOTION_DDOT":"0.0000000000000","ARG_OF_PERICENTER":"65.2290","MEAN_MOTION":"15.06394835","SEMIMAJOR_AXIS":"6925.364","PERIOD":"95.592","ECCENTRICITY":"0.00015310","APOAPSIS":"548.290","TLE_LINE1":"1 44762U 19074BB  22136.04576421 -.00000174  00000-0  72171-5 0  9993","EPHEMERIS_TYPE":"0","FILE":"3448591","MEAN_ELEMENT_THEORY":"SGP4","REV_AT_EPOCH":"13841","COUNTRY_CODE":"US","OBJECT_TYPE":"PAYLOAD","PERIAPSIS":"546.169","ELEMENT_SET_NO":"999","BSTAR":"0.00000721710000","CLASSIFICATION_TYPE":"U","RCS_SIZE":"LARGE","REF_FRAME":"TEME","OBJECT_ID":"2019-074BB","OBJECT_NAME":"STARLINK-1057","TLE_LINE2":"2 44762  53.0564 342.9243 0001531  65.2290 294.8858 15.06394835138414","SITE":"AFETR","RA_OF_ASC_NODE":"342.9243","GP_ID":"203695989","INCLINATION":"53.0564","LAUNCH_DATE":"2019-11-11","NORAD_CAT_ID":"44762","CENTER_NAME":"EARTH","DECAY_DATE":null,"MEAN_ANOMALY":"294.8858"},{"FILE":"3448591","MEAN_ELEMENT_THEORY":"SGP4","EPHEMERIS_TYPE":"0","APOAPSIS":"548.244","TLE_LINE1":"1 44763U 19074BC  22136.59681715  .00000575  00000-0  57490-4 0  9997","MEAN_MOTION_DDOT":"0.0000000000000","ARG_OF_PERICENTER":"72.5940","TIME_SYSTEM":"UTC","EPOCH":"2022-05-16T14:19:25.001760","MEAN_MOTION_DOT":"0.00000575","SEMIMAJOR_AXIS":"6925.371","ECCENTRICITY":"0.00014560","PERIOD":"95.593","MEAN_MOTION":"15.06392703","CENTER_NAME":"EARTH","NORAD_CAT_ID":"44763","GP_ID":"203695247","INCLINATION":"53.0558","LAUNCH_DATE":"2019-11-11","DECAY_DATE":null,"MEAN_ANOMALY":"287.5208","CLASSIFICATION_TYPE":"U","BSTAR":"0.00005749000000","ELEMENT_SET_NO":"999","COUNTRY_CODE":"US","PERIAPSIS":"546.228","OBJECT_TYPE":"PAYLOAD","REV_AT_EPOCH":"13822","TLE_LINE2":"2 44763  53.0558   0.4681 0001456  72.5940 287.5208 15.06392703138228","SITE":"AFETR","RA_OF_ASC_NODE":"0.4681","OBJECT_NAME":"STARLINK-1058","RCS_SIZE":"LARGE","REF_FRAME":"TEME","OBJECT_ID":"2019-074BC"},{"GP_ID":"203705114","LAUNCH_DATE":"2019-11-11","INCLINATION":"53.0566","NORAD_CAT_ID":"44764","CENTER_NAME":"EARTH","MEAN_ANOMALY":"300.9057","DECAY_DATE":null,"REV_AT_EPOCH":"13870","COUNTRY_CODE":"US","OBJECT_TYPE":"PAYLOAD","PERIAPSIS":"546.098","ELEMENT_SET_NO":"999","BSTAR":"-0.00000688370000","CLASSIFICATION_TYPE":"U","OBJECT_ID":"2019-074BD","REF_FRAME":"TEME","RCS_SIZE":"LARGE","OBJECT_NAME":"STARLINK-1059","RA_OF_ASC_NODE":"339.3810","SITE":"AFETR","TLE_LINE2":"2 44764  53.0566 339.3810 0001621  59.2091 300.9057 15.06397623138700","TLE_LINE1":"1 44764U 19074BD  22136.83824288 -.00000384  00000-0 -68837-5 0  9997","APOAPSIS":"548.343","EPHEMERIS_TYPE":"0","FILE":"3448782","MEAN_ELEMENT_THEORY":"SGP4","MEAN_MOTION_DOT":"-0.00000384","EPOCH":"2022-05-16T20:07:04.184832","TIME_SYSTEM":"UTC","MEAN_MOTION_DDOT":"0.0000000000000","ARG_OF_PERICENTER":"59.2091","MEAN_MOTION":"15.06397623","PERIOD":"95.592","ECCENTRICITY":"0.00016210","SEMIMAJOR_AXIS":"6925.356"},{"TLE_LINE1":"1 44765U 19074BE  22136.59129369 -.00000256  00000-0  16937-5 0  9990","APOAPSIS":"548.266","FILE":"3448591","EPHEMERIS_TYPE":"0","MEAN_ELEMENT_THEORY":"SGP4","MEAN_MOTION":"15.06389686","PERIOD":"95.593","ECCENTRICITY":"0.00014740","SEMIMAJOR_AXIS":"6925.380","MEAN_MOTION_DOT":"-0.00000256","EPOCH":"2022-05-16T14:11:27.774816","TIME_SYSTEM":"UTC","MEAN_MOTION_DDOT":"0.0000000000000","ARG_OF_PERICENTER":"79.3941","MEAN_ANOMALY":"280.7214","DECAY_DATE":null,"GP_ID":"203695749","LAUNCH_DATE":"2019-11-11","INCLINATION":"53.0563","NORAD_CAT_ID":"44765","CENTER_NAME":"EARTH","OBJECT_ID":"2019-074BE","REF_FRAME":"TEME","RCS_SIZE":"LARGE","OBJECT_NAME":"STARLINK-1060","RA_OF_ASC_NODE":"340.4726","TLE_LINE2":"2 44765  53.0563 340.4726 0001474  79.3941 280.7214 15.06389686138496","SITE":"AFETR","REV_AT_EPOCH":"13849","COUNTRY_CODE":"US","OBJECT_TYPE":"PAYLOAD","PERIAPSIS":"546.224","ELEMENT_SET_NO":"999","BSTAR":"0.00000169370000","CLASSIFICATION_TYPE":"U"},{"SITE":"AFETR","TLE_LINE2":"2 44766  53.0579   0.4923 0001425  81.9215 278.1935 15.06392654138226","RA_OF_ASC_NODE":"0.4923","RCS_SIZE":"LARGE","OBJECT_ID":"2019-074BF","REF_FRAME":"TEME","OBJECT_NAME":"STARLINK-1061","BSTAR":"0.00004104600000","ELEMENT_SET_NO":"999","CLASSIFICATION_TYPE":"U","REV_AT_EPOCH":"13822","COUNTRY_CODE":"US","PERIAPSIS":"546.249","OBJECT_TYPE":"PAYLOAD","DECAY_DATE":null,"MEAN_ANOMALY":"278.1935","CENTER_NAME":"EARTH","INCLINATION":"53.0579","GP_ID":"203696489","LAUNCH_DATE":"2019-11-11","NORAD_CAT_ID":"44766","MEAN_MOTION":"15.06392654","SEMIMAJOR_AXIS":"6925.371","ECCENTRICITY":"0.00014250","PERIOD":"95.593","MEAN_MOTION_DDOT":"0.0000000000000","ARG_OF_PERICENTER":"81.9215","MEAN_MOTION_DOT":"0.00000330","TIME_SYSTEM":"UTC","EPOCH":"2022-05-16T14:08:47.910624","MEAN_ELEMENT_THEORY":"SGP4","FILE":"3448591","EPHEMERIS_TYPE":"0","APOAPSIS":"548.223","TLE_LINE1":"1 44766U 19074BF  22136.58944341  .00000330  00000-0  41046-4 0  9995"}];
